{"type": "FeatureCollection", "features": [ {"type": "Feature", "properties": {"norad_id": 37069, "name": "FENGYUN 1C DEB", "group": "fengyun-1c-debris", "lat": 28.762353829580455, "lon": 139.81248627180784, "alt_km": 1202.3426490148977, "timestamp": "2025-12-11T18:59:46.362750+00:00", "meta": {"OBJECT_NAME": "FENGYUN 1C DEB", "OBJECT_ID": "1999-025EFD", "EPOCH": "2025-12-11T03:50:19.199616", "MEAN_MOTION": 13.37972733, "ECCENTRICITY": 0.04247458, "INCLINATION": 95.8495, "RA_OF_ASC_NODE": 316.2215, "ARG_OF_PERICENTER": 260.8496, "MEAN_ANOMALY": 94.4371, "EPHEMERIS_TYPE": 0, "CLASSIFICATION_TYPE": "U", "NORAD_CAT_ID": 37069, "ELEMENT_SET_NO": 999, "REV_AT_EPOCH": 87687, "BSTAR": 0.0038169767, "MEAN_MOTION_DOT": 3.372e-05, "MEAN_MOTION_DDOT": 0}, "tle": {"line1": "1 37069U 99025EFD 25345.15994444  .00003372  00000+0  38170-2 0  9994", "line2": "2 37069  95.8495 316.2215 0424745 260.8496  94.4371 13.37972733876877"}}, "geometry": {"type": "Point", "coordinates": [139.81248627180784, 28.762353829580455]}}, {"type": "Feature", "properties": {"norad_id": 37077, "name": "FENGYUN 1C DEB", "group": "fengyun-1c-debris", "lat": 80.95129521862276, "lon": -31.56171946675185, "alt_km": 779.5142460127081, "timestamp": "2025-12-11T18:59:46.362760+00:00", "meta": {"OBJECT_NAME": "FENGYUN 1C DEB", "OBJECT_ID": "1999-025EFM", "EPOCH": "2025-12-10T04:15:26.292096", "MEAN_MOTION": 14.41185335, "ECCENTRICITY": 0.00955067, "INCLINATION": 99.0349, "RA_OF_ASC_NODE": 59.1671, "ARG_OF_PERICENTER": 336.2622, "MEAN_ANOMALY": 23.4174, "EPHEMERIS_TYPE": 0, "CLASSIFICATION_TYPE": "U", "NORAD_CAT_ID": 37077, "ELEMENT_SET_NO": 999, "REV_AT_EPOCH": 84918, "BSTAR": 0.00049394672, "MEAN_MOTION_DOT": 1.63e-05, "MEAN_MOTION_DDOT": 0}, "tle": {"line1": "1 37077U 99025EFM 25344.17738764  .00001630  00000+0  49395-3 0  9992", "line2": "2 37077  99.0349  59.1671 0095506 336.2622  23.4174 14.41185335849184"}}, "geometry": {"type": "Point", "coordinates": [-31.56171946675185, 80.95129521862276]}}, {"type": "Feature", "properties": {"norad_id": 37079, "name": "FENGYUN 1C DEB", "group": "fengyun-1c-debris", "lat": -53.693481216257325, "lon": -71.56867846437886, "alt_km": 700.4785424057163, "timestamp": "2025-12-11T18:59:46.362793+00:00", "meta": {"OBJECT_NAME": "FENGYUN 1C DEB", "OBJECT_ID": "1999-025EFP", "EPOCH": "2025-12-08T02:44:01.234752", "MEAN_MOTION": 14.59611679, "ECCENTRICITY": 0.00122766, "INCLINATION": 98.8583, "RA_OF_ASC_NODE": 116.7613, "ARG_OF_PERICENTER": 158.0641, "MEAN_ANOMALY": 202.1084, "EPHEMERIS_TYPE": 0, "CLASSIFICATION_TYPE": "U", "NORAD_CAT_ID": 37079, "ELEMENT_SET_NO": 999, "REV_AT_EPOCH": 64548, "BSTAR": 0.0049568396, "MEAN_MOTION_DOT": 0.00023637, "MEAN_MOTION_DDOT": 0}, "tle": {"line1": "1 37079U 99025EFP 25342.11390318  .00023637  00000+0  49568-2 0  9997", "line2": "2 37079  98.8583 116.7613 0012276 158.0641 202.1084 14.59611679645480"}}, "geometry": {"type": "Point", "coordinates": [-71.56867846437886, -53.693481216257325]}}, {"type": "Feature", "properties": {"norad_id": 37081, "name": "FENGYUN 1C DEB", "group": "fengyun-1c-debris", "lat": -41.620564139895784, "lon": -49.731250764677704, "alt_km": 969.2982938315918, "timestamp": "2025-12-11T18:59:46.362807+00:00", "meta": {"OBJECT_NAME": "FENGYUN 1C DEB", "OBJECT_ID": "1999-025EFR", "EPOCH": "2025-12-11T04:20:52.810656", "MEAN_MOTION": 14.13829604, "ECCENTRICITY": 0.02642543, "INCLINATION": 98.708, "RA_OF_ASC_NODE": 137.4998, "ARG_OF_PERICENTER": 352.6633, "MEAN_ANOMALY": 7.0706, "EPHEMERIS_TYPE": 0, "CLASSIFICATION_TYPE": "U", "NORAD_CAT_ID": 37081, "ELEMENT_SET_NO": 999, "REV_AT_EPOCH": 58552, "BSTAR": 0.0037644522, "MEAN_MOTION_DOT": 9.927e-05, "MEAN_MOTION_DDOT": 0}, "tle": {"line1": "1 37081U 99025EFR 25345.18116679  .00009927  00000+0  37645-2 0  9995", "line2": "2 37081  98.7080 137.4998 0264254 352.6633   7.0706 14.13829604585528"}}, "geometry": {"type": "Point", "coordinates": [-49.731250764677704, -41.620564139895784]}}, {"type": "Feature", "properties": {"norad_id": 37400, "name": "FENGYUN 1C DEB", "group": "fengyun-1c-debris", "lat": -0.5002936320294779, "lon": 3.174750954016399, "alt_km": 796.9708617433889, "timestamp": "2025-12-11T18:59:46.362818+00:00", "meta": {"OBJECT_NAME": "FENGYUN 1C DEB", "OBJECT_ID": "1999-025EFS", "EPOCH": "2025-12-11T00:32:02.729184", "MEAN_MOTION": 13.63640993, "ECCENTRICITY": 0.04016175, "INCLINATION": 98.8379, "RA_OF_ASC_NODE": 182.5515, "ARG_OF_PERICENTER": 141.1133, "MEAN_ANOMALY": 221.9645, "EPHEMERIS_TYPE": 0, "CLASSIFICATION_TYPE": "U", "NORAD_CAT_ID": 37400, "ELEMENT_SET_NO": 999, "REV_AT_EPOCH": 80170, "BSTAR": 0.00059726851, "MEAN_MOTION_DOT": 7.81e-06, "MEAN_MOTION_DDOT": 0}, "tle": {"line1": "1 37400U 99025EFS 25345.02225381  .00000781  00000+0  59727-3 0  9999", "line2": "2 37400  98.8379 182.5515 0401617 141.1133 221.9645 13.63640993801709"}}, "geometry": {"type": "Point", "coordinates": [3.174750954016399, -0.5002936320294779]}}, {"type": "Feature", "properties": {"norad_id": 37404, "name": "FENGYUN 1C DEB", "group": "fengyun-1c-debris", "lat": 70.17713719020509, "lon": -35.703617515959095, "alt_km": 780.9879038242561, "timestamp": "2025-12-11T18:59:46.362829+00:00", "meta": {"OBJECT_NAME": "FENGYUN 1C DEB", "OBJECT_ID": "1999-025EFW", "EPOCH": "2025-12-09T23:11:10.608000", "MEAN_MOTION": 14.31626731, "ECCENTRICITY": 0.00443951, "INCLINATION": 98.4529, "RA_OF_ASC_NODE": 346.8831, "ARG_OF_PERICENTER": 170.4527, "MEAN_ANOMALY": 219.5442, "EPHEMERIS_TYPE": 0, "CLASSIFICATION_TYPE": "U", "NORAD_CAT_ID": 37404, "ELEMENT_SET_NO": 999, "REV_AT_EPOCH": 82701, "BSTAR": 0.0009006261, "MEAN_MOTION_DOT": 2.383e-05, "MEAN_MOTION_DDOT": 0}, "tle": {"line1": "1 37404U 99025EFW 25343.96609500  .00002383  00000+0  90063-3 0  9991", "line2": "2 37404  98.4529 346.8831 0044395 170.4527 219.5442 14.31626731827010"}}, "geometry": {"type": "Point", "coordinates": [-35.703617515959095, 70.17713719020509]}}, {"type": "Feature", "properties": {"norad_id": 37406, "name": "FENGYUN 1C DEB", "group": "fengyun-1c-debris", "lat": 80.70779697501817, "lon": 152.7976126210595, "alt_km": 980.0257909253314, "timestamp": "2025-12-11T18:59:46.362840+00:00", "meta": {"OBJECT_NAME": "FENGYUN 1C DEB", "OBJECT_ID": "1999-025EFY", "EPOCH": "2025-12-10T22:08:17.601216", "MEAN_MOTION": 14.04282623, "ECCENTRICITY": 0.0149683, "INCLINATION": 98.4429, "RA_OF_ASC_NODE": 217.1877, "ARG_OF_PERICENTER": 271.7264, "MEAN_ANOMALY": 103.1759, "EPHEMERIS_TYPE": 0, "CLASSIFICATION_TYPE": "U", "NORAD_CAT_ID": 37406, "ELEMENT_SET_NO": 999, "REV_AT_EPOCH": 63207, "BSTAR": 0.0017076, "MEAN_MOTION_DOT": 2.958e-05, "MEAN_MOTION_DDOT": 0}, "tle": {"line1": "1 37406U 99025EFY 25344.92242594  .00002958  00000+0  17076-2 0  9996", "line2": "2 37406  98.4429 217.1877 0149683 271.7264 103.1759 14.04282623632077"}}, "geometry": {"type": "Point", "coordinates": [152.7976126210595, 80.70779697501817]}}, {"type": "Feature", "properties": {"norad_id": 37415, "name": "FENGYUN 1C DEB", "group": "fengyun-1c-debris", "lat": -77.00156621633919, "lon": -129.5298855181044, "alt_km": 1014.3320130220545, "timestamp": "2025-12-11T18:59:46.362851+00:00", "meta": {"OBJECT_NAME": "FENGYUN 1C DEB", "OBJECT_ID": "1999-025EGH", "EPOCH": "2025-12-08T13:21:24.699168", "MEAN_MOTION": 13.52085555, "ECCENTRICITY": 0.0285076, "INCLINATION": 98.9817, "RA_OF_ASC_NODE": 90.7824, "ARG_OF_PERICENTER": 192.9583, "MEAN_ANOMALY": 166.412, "EPHEMERIS_TYPE": 0, "CLASSIFICATION_TYPE": "U", "NORAD_CAT_ID": 37415, "ELEMENT_SET_NO": 999, "REV_AT_EPOCH": 62265, "BSTAR": 0.00090162, "MEAN_MOTION_DOT": 7.27e-06, "MEAN_MOTION_DDOT": 0}, "tle": {"line1": "1 37415U 99025EGH 25342.55653587  .00000727  00000+0  90162-3 0  9991", "line2": "2 37415  98.9817  90.7824 0285076 192.9583 166.4120 13.52085555622659"}}, "geometry": {"type": "Point", "coordinates": [-129.5298855181044, -77.00156621633919]}}, {"type": "Feature", "properties": {"norad_id": 37417, "name": "FENGYUN 1C DEB", "group": "fengyun-1c-debris", "lat": -29.856783012898244, "lon": 153.51186556498604, "alt_km": 840.111552222399, "timestamp": "2025-12-11T18:59:46.362861+00:00", "meta": {"OBJECT_NAME": "FENGYUN 1C DEB", "OBJECT_ID": "1999-025EGK", "EPOCH": "2025-12-07T06:30:00.629568", "MEAN_MOTION": 14.07380066, "ECCENTRICITY": 0.00782242, "INCLINATION": 98.7964, "RA_OF_ASC_NODE": 334.2107, "ARG_OF_PERICENTER": 276.2736, "MEAN_ANOMALY": 82.9527, "EPHEMERIS_TYPE": 0, "CLASSIFICATION_TYPE": "U", "NORAD_CAT_ID": 37417, "ELEMENT_SET_NO": 999, "REV_AT_EPOCH": 68273, "BSTAR": 0.00064539005, "MEAN_MOTION_DOT": 1.072e-05, "MEAN_MOTION_DDOT": 0}, "tle": {"line1": "1 37417U 99025EGK 25341.27084062  .00001072  00000+0  64539-3 0  9990", "line2": "2 37417  98.7964 334.2107 0078224 276.2736  82.9527 14.07380066682737"}}, "geometry": {"type": "Point", "coordinates": [153.51186556498604, -29.856783012898244]}}, {"type": "Feature", "properties": {"norad_id": 37418, "name": "FENGYUN 1C DEB", "group": "fengyun-1c-debris", "lat": 47.67245227181454, "lon": -131.30432851160057, "alt_km": 1556.2350145226474, "timestamp": "2025-12-11T18:59:46.362871+00:00", "meta": {"OBJECT_NAME": "FENGYUN 1C DEB", "OBJECT_ID": "1999-025EGL", "EPOCH": "2025-12-06T16:12:36.074592", "MEAN_MOTION": 11.95112147, "ECCENTRICITY": 0.10777154, "INCLINATION": 98.6124, "RA_OF_ASC_NODE": 234.8635, "ARG_OF_PERICENTER": 331.8071, "MEAN_ANOMALY": 22.8442, "EPHEMERIS_TYPE": 0, "CLASSIFICATION_TYPE": "U", "NORAD_CAT_ID": 37418, "ELEMENT_SET_NO": 999, "REV_AT_EPOCH": 49412, "BSTAR": 0.0048233577, "MEAN_MOTION_DOT": 1.984e-05, "MEAN_MOTION_DDOT": 0}, "tle": {"line1": "1 37418U 99025EGL 25340.67541753  .00001984  00000+0  48234-2 0  9994", "line2": "2 37418  98.6124 234.8635 1077715 331.8071  22.8442 11.95112147494121"}}, "geometry": {"type": "Point", "coordinates": [-131.30432851160057, 47.67245227181454]}}]}